CUBEBUG-2 (LO-74)
1 39440U 13066AA  26181.39293335  .00004394  00000-0  40622-3 0  9998
2 39440  97.8910 130.4277 0056962 345.3652  14.5915 14.93867811678965
FUNCUBE-1 (AO-73)
1 39444U 13066AE  26181.44637431  .00006265  00000-0  38733-3 0  9996
2 39444  97.8283 153.1705 0037087 155.7745 204.5238 15.09646175681669
UWE-3
1 39446U 13066AG  26181.44959916  .00002754  00000-0  23878-3 0  9996
2 39446  97.8711 137.6146 0047006 275.9070  83.6795 14.97123484679560
UNISAT-6
1 40012U 14033C   26181.37819364  .00002595  00000-0  28138-3 0  9993
2 40012  97.7890 333.8587 0045423  26.7398 333.6146 14.88308436648121
DUCHIFAT-1
1 40021U 14033M   26181.12204555  .00107570  00000-0  98876-3 0  9991
2 40021  98.0447 242.1254 0000496 107.7181 252.4132 15.67349630657770
LILACSAT-2
1 40908U 15049K   26181.55715486  .00015957  00000-0  26765-3 0  9995
2 40908  97.4626 218.9093 0006892 188.3589 171.7550 15.51879240597825
CAS-2T & KS-1Q
1 41847U 16066G   26181.19207671  .00001573  00000-0  22694-3 0  9996
2 41847  98.3819 256.7796 0342845  90.1573 273.8901 14.44735570506671
FOX-1B (AO-91)
1 43017U 17073E   26181.56901580  .00006695  00000-0  29341-3 0  9993
2 43017  97.4686  48.5107 0148328 282.5576  75.9100 15.12893104467411
FUNCUBE-3 (EO-79)/QB50P1
1 40025U 14033R   26181.26463463  .00007596  00000-0  37202-3 0  9998
2 40025  98.0957 193.3288 0009193 170.0607 190.0809 15.18453201655012
FOX-1A (AO-85)
1 40967U 15058D   26181.56603293  .00002007  00000-0  18701-3 0  9996
2 40967  64.7741 237.4052 0131293  51.3883 309.8898 14.91023562115563
DIWATA-2B (PO-101)
1 43678U 18084H   26181.57387382  .00001972  00000-0  16142-3 0  9996
2 43678  98.1200  18.3663 0013114 128.6702 231.5696 15.00509099418220
ESHAIL-2
1 43700U 18090A   26181.30641083  .00000155  00000-0  00000-0 0  9996
2 43700   0.0187  24.8803 0002229 108.3216 281.2639  1.00272145 27803
ITASAT-1
1 43786U 18099AE  26181.59069529  .00006267  00000-0  30036-3 0  9994
2 43786  97.4020 232.8356 0010949 309.6889  50.3380 15.19218577414944
FOX-1CLIFF (AO-95)
1 43770U 18099N   26181.11954567  .00010231  00000-0  38875-3 0  9995
2 43770  97.4382 241.3196 0007026 305.2018  54.8563 15.26976456415198
JY1SAT (JO-97)
1 43803U 18099AX  26181.14334601  .00015212  00000-0  46343-3 0  9999
2 43803  97.4129 244.0253 0005404 207.7837 152.3117 15.34057952415617
UWE-4
1 43880U 18111E   26181.28532120  .00030312  00000-0  60219-3 0  9996
2 43880  97.5854 110.2868 0004316 269.5184  90.5570 15.46924392412804
CAS-6 (TO-108)
1 44881U 19093C   26181.50717981  .00001241  00000-0  14598-3 0  9991
2 44881  97.7536 253.4145 0014792  47.5532 312.6932 14.86542547353392
DOSAAF-85 (RS-44)
1 44909U 19096E   26181.45233901  .00000008  00000-0 -18766-4 0  9997
2 44909  82.5224 330.8897 0218504 113.2889 249.1374 12.79748923304044
SALSAT (TUBSAT 22)
1 46495U 20068K   26181.48833811  .00007517  00000-0  26165-3 0  9991
2 46495  97.8843 185.3641 0007929 251.0233 109.0147 15.29983096317397
CAMSAT XW-3 (CAS-9)
1 50466U 21131B   26181.59129975  .00000477  00000-0  16097-3 0  9998
2 50466  98.4993 273.9085 0005276  65.8946 294.2795 14.41369306237048
ROBUSTA 1F (MTCUBE-2)
1 53109U 22080E   26179.70139334 -.00000003  00000-0  00000-0 0  9999
2 53109  70.1440 294.2410 0008988 287.1341  72.8335  6.42583249 92807
UMKA-1 (RS40S)
1 57172U 23091G   26181.58148630  .00006485  00000-0  29509-3 0  9991
2 57172  97.5045 240.2277 0014146  76.2291 284.0518 15.20969733166041
CUBESX-HSE-3 (RS42S)
1 57178U 23091N   26181.56915789  .00012608  00000-0  41548-3 0  9993
2 57178  97.5089 247.3275 0011195  52.4979 307.7278 15.31545440166471
MONITOR-3 (RS58S)
1 57180U 23091Q   26181.55794985  .00010364  00000-0  38000-3 0  9994
2 57180  97.5080 245.1035 0012442  58.9364 301.3095 15.28106339166338
MONITOR-4 (RS57S)
1 57182U 23091S   26181.53626571  .00010770  00000-0  39371-3 0  9992
2 57182  97.5074 245.0537 0012451  59.2574 300.9890 15.28190696166333
MONITOR-2 (RS39S)
1 57184U 23091U   26181.55379158  .00004927  00000-0  23806-3 0  9995
2 57184  97.5067 239.7505 0012550  70.4729 289.7859 15.19032693165980
SVYATOBOR-1 (RS60S)
1 57187U 23091X   26181.56098693  .00008766  00000-0  33471-3 0  9995
2 57187  97.5086 245.4531 0010204  53.6057 306.6121 15.26837520166351
VIZARD-METEO (RS38S)
1 57189U 23091Z   26181.56579834  .00016566  00000-0  46748-3 0  9996
2 57189  97.5090 251.3219 0007144  34.9582 325.2130 15.36443086166742
UTMN-2 (RS27S)
1 57203U 23091AP  26181.44887987  .00011711  00000-0  37674-3 0  9996
2 57203  97.5086 248.8556 0008317  42.7046 317.4840 15.32367609166578
POLYTECH UNIVERSE-3 (RS46S)
1 57191U 23091AB  26181.57920124  .00005418  00000-0  25945-3 0  9992
2 57191  97.5042 239.2801 0017006  84.5580 275.7594 15.19239755165986
